start=new Date('2022-12-23T00:00:00.000Z').valueOf();
sats=[{"RA_OF_ASC_NODE":"147.2723","CENTER_NAME":"EARTH","PERIAPSIS":"545.876","RCS_SIZE":"LARGE","EPHEMERIS_TYPE":"0","MEAN_MOTION_DDOT":"0.0000000000000","TLE_LINE1":"1 47902U 21021AU  22356.72524414 -.00004593  00000-0 -28949-3 0  9993","MEAN_MOTION":"15.06418799","GP_ID":"221235274","DECAY_DATE":null,"MEAN_ELEMENT_THEORY":"SGP4","INCLINATION":"53.0541","APOAPSIS":"548.436","ARG_OF_PERICENTER":"56.2864","COUNTRY_CODE":"US","ECCENTRICITY":"0.00018480","LAUNCH_DATE":"2021-03-14","REV_AT_EPOCH":"9936","SEMIMAJOR_AXIS":"6925.291","FILE":"3719655","MEAN_MOTION_DOT":"-0.00004593","NORAD_CAT_ID":"47902","OBJECT_TYPE":"PAYLOAD","SITE":"AFETR","TLE_LINE2":"2 47902  53.0541 147.2723 0001848  56.2864 303.8301 15.06418799 99365","PERIOD":"95.591","EPOCH":"2022-12-22T17:24:21.093696","TIME_SYSTEM":"UTC","CLASSIFICATION_TYPE":"U","OBJECT_NAME":"STARLINK-2362","MEAN_ANOMALY":"303.8301","OBJECT_ID":"2021-021AU","ELEMENT_SET_NO":"999","REF_FRAME":"TEME","BSTAR":"-0.00028949000000"},{"TLE_LINE2":"2 47903  53.0556 127.1619 0001422  62.9084 297.2050 15.06390672 99882","PERIOD":"95.593","SITE":"AFETR","OBJECT_TYPE":"PAYLOAD","BSTAR":"0.00003939000000","OBJECT_ID":"2021-021AV","ELEMENT_SET_NO":"999","REF_FRAME":"TEME","CLASSIFICATION_TYPE":"U","TIME_SYSTEM":"UTC","OBJECT_NAME":"STARLINK-2363","MEAN_ANOMALY":"297.2050","EPOCH":"2022-12-22T17:57:30.591072","TLE_LINE1":"1 47903U 21021AV  22356.74827073  .00000305  00000-0  39390-4 0  9991","INCLINATION":"53.0556","MEAN_ELEMENT_THEORY":"SGP4","GP_ID":"221234022","DECAY_DATE":null,"MEAN_MOTION":"15.06390672","MEAN_MOTION_DDOT":"0.0000000000000","EPHEMERIS_TYPE":"0","RA_OF_ASC_NODE":"127.1619","RCS_SIZE":"LARGE","PERIAPSIS":"546.257","CENTER_NAME":"EARTH","REV_AT_EPOCH":"9988","LAUNCH_DATE":"2021-03-14","MEAN_MOTION_DOT":"0.00000305","NORAD_CAT_ID":"47903","SEMIMAJOR_AXIS":"6925.377","FILE":"3719655","COUNTRY_CODE":"US","ECCENTRICITY":"0.00014220","ARG_OF_PERICENTER":"62.9084","APOAPSIS":"548.227"},{"BSTAR":"0.00003767300000","OBJECT_ID":"2021-021AW","ELEMENT_SET_NO":"999","REF_FRAME":"TEME","TIME_SYSTEM":"UTC","CLASSIFICATION_TYPE":"U","OBJECT_NAME":"STARLINK-2364","MEAN_ANOMALY":"301.0507","EPOCH":"2022-12-22T17:53:33.450720","TLE_LINE2":"2 47904  53.0556 127.1839 0001584  59.0637 301.0507 15.06401606 99529","PERIOD":"95.592","SITE":"AFETR","OBJECT_TYPE":"PAYLOAD","LAUNCH_DATE":"2021-03-14","REV_AT_EPOCH":"9952","FILE":"3719655","SEMIMAJOR_AXIS":"6925.344","NORAD_CAT_ID":"47904","MEAN_MOTION_DOT":"0.00000280","COUNTRY_CODE":"US","ECCENTRICITY":"0.00015840","APOAPSIS":"548.306","ARG_OF_PERICENTER":"59.0637","TLE_LINE1":"1 47904U 21021AW  22356.74552605  .00000280  00000-0  37673-4 0  9992","DECAY_DATE":null,"GP_ID":"221234272","MEAN_MOTION":"15.06401606","MEAN_ELEMENT_THEORY":"SGP4","INCLINATION":"53.0556","MEAN_MOTION_DDOT":"0.0000000000000","EPHEMERIS_TYPE":"0","RA_OF_ASC_NODE":"127.1839","PERIAPSIS":"546.112","CENTER_NAME":"EARTH","RCS_SIZE":"LARGE"},{"REV_AT_EPOCH":"9965","LAUNCH_DATE":"2021-03-14","MEAN_MOTION_DOT":"0.00001298","NORAD_CAT_ID":"47905","FILE":"3719655","SEMIMAJOR_AXIS":"6925.335","COUNTRY_CODE":"US","ECCENTRICITY":"0.00017640","ARG_OF_PERICENTER":"46.8077","APOAPSIS":"548.422","TLE_LINE1":"1 47905U 21021AX  22356.74089775  .00001298  00000-0  10604-3 0  9990","INCLINATION":"53.0543","DECAY_DATE":null,"GP_ID":"221235523","MEAN_MOTION":"15.06404449","MEAN_ELEMENT_THEORY":"SGP4","MEAN_MOTION_DDOT":"0.0000000000000","EPHEMERIS_TYPE":"0","RA_OF_ASC_NODE":"127.1864","RCS_SIZE":"LARGE","CENTER_NAME":"EARTH","PERIAPSIS":"545.978","BSTAR":"0.00010604000000","OBJECT_ID":"2021-021AX","ELEMENT_SET_NO":"999","REF_FRAME":"TEME","CLASSIFICATION_TYPE":"U","OBJECT_NAME":"STARLINK-2365","TIME_SYSTEM":"UTC","MEAN_ANOMALY":"313.3059","EPOCH":"2022-12-22T17:46:53.565600","TLE_LINE2":"2 47905  53.0543 127.1864 0001764  46.8077 313.3059 15.06404449 99656","PERIOD":"95.592","SITE":"AFETR","OBJECT_TYPE":"PAYLOAD"},{"ELEMENT_SET_NO":"999","REF_FRAME":"TEME","OBJECT_ID":"2021-021AY","BSTAR":"0.00002696900000","EPOCH":"2022-12-22T18:36:42.752448","MEAN_ANOMALY":"212.4109","TIME_SYSTEM":"UTC","CLASSIFICATION_TYPE":"U","OBJECT_NAME":"STARLINK-2366","PERIOD":"91.329","TLE_LINE2":"2 47906  53.0131 232.2377 0001705 147.7014 212.4109 15.76717073103203","OBJECT_TYPE":"PAYLOAD","SITE":"AFETR","NORAD_CAT_ID":"47906","MEAN_MOTION_DOT":"0.00003759","SEMIMAJOR_AXIS":"6717.886","FILE":"3719655","REV_AT_EPOCH":"10320","LAUNCH_DATE":"2021-03-14","ARG_OF_PERICENTER":"147.7014","APOAPSIS":"340.897","ECCENTRICITY":"0.00017050","COUNTRY_CODE":"US","MEAN_MOTION_DDOT":"0.0000000000000","INCLINATION":"53.0131","GP_ID":"221235774","MEAN_MOTION":"15.76717073","DECAY_DATE":null,"MEAN_ELEMENT_THEORY":"SGP4","TLE_LINE1":"1 47906U 21021AY  22356.77549482  .00003759  00000-0  26969-4 0  9996","RCS_SIZE":"LARGE","PERIAPSIS":"338.606","CENTER_NAME":"EARTH","RA_OF_ASC_NODE":"232.2377","EPHEMERIS_TYPE":"0"},{"EPOCH":"2022-12-22T16:26:00.227904","CLASSIFICATION_TYPE":"U","OBJECT_NAME":"STARLINK-2367","TIME_SYSTEM":"UTC","MEAN_ANOMALY":"288.0782","OBJECT_ID":"2021-021AZ","ELEMENT_SET_NO":"999","REF_FRAME":"TEME","BSTAR":"0.00010469000000","OBJECT_TYPE":"PAYLOAD","SITE":"AFETR","TLE_LINE2":"2 47907  53.0534 147.4455 0001588  72.0380 288.0782 15.06394362 99216","PERIOD":"95.592","ARG_OF_PERICENTER":"72.0380","APOAPSIS":"548.331","COUNTRY_CODE":"US","ECCENTRICITY":"0.00015880","REV_AT_EPOCH":"9921","LAUNCH_DATE":"2021-03-14","NORAD_CAT_ID":"47907","MEAN_MOTION_DOT":"0.00001278","SEMIMAJOR_AXIS":"6925.366","FILE":"3719655","RA_OF_ASC_NODE":"147.4455","RCS_SIZE":"LARGE","PERIAPSIS":"546.131","CENTER_NAME":"EARTH","EPHEMERIS_TYPE":"0","MEAN_MOTION_DDOT":"0.0000000000000","TLE_LINE1":"1 47907U 21021AZ  22356.68472486  .00001278  00000-0  10469-3 0  9997","INCLINATION":"53.0534","GP_ID":"221234522","DECAY_DATE":null,"MEAN_ELEMENT_THEORY":"SGP4","MEAN_MOTION":"15.06394362"},{"MEAN_MOTION_DDOT":"0.0000000000000","MEAN_MOTION":"15.06405885","GP_ID":"221234772","DECAY_DATE":null,"MEAN_ELEMENT_THEORY":"SGP4","INCLINATION":"53.0535","TLE_LINE1":"1 47908U 21021BA  22356.69208299  .00003350  00000-0  24368-3 0  9994","PERIAPSIS":"546.002","CENTER_NAME":"EARTH","RCS_SIZE":"LARGE","RA_OF_ASC_NODE":"147.4123","EPHEMERIS_TYPE":"0","SEMIMAJOR_AXIS":"6925.331","FILE":"3719655","MEAN_MOTION_DOT":"0.00003350","NORAD_CAT_ID":"47908","LAUNCH_DATE":"2021-03-14","REV_AT_EPOCH":"9924","APOAPSIS":"548.389","ARG_OF_PERICENTER":"69.4881","ECCENTRICITY":"0.00017240","COUNTRY_CODE":"US","PERIOD":"95.592","TLE_LINE2":"2 47908  53.0535 147.4123 0001724  69.4881 290.6293 15.06405885 99240","OBJECT_TYPE":"PAYLOAD","SITE":"AFETR","REF_FRAME":"TEME","ELEMENT_SET_NO":"999","OBJECT_ID":"2021-021BA","BSTAR":"0.00024368000000","EPOCH":"2022-12-22T16:36:35.970336","MEAN_ANOMALY":"290.6293","TIME_SYSTEM":"UTC","CLASSIFICATION_TYPE":"U","OBJECT_NAME":"STARLINK-2368"},{"MEAN_MOTION_DDOT":"0.0000000000000","GP_ID":"221235024","DECAY_DATE":null,"MEAN_ELEMENT_THEORY":"SGP4","MEAN_MOTION":"15.06402586","INCLINATION":"53.0541","TLE_LINE1":"1 47909U 21021BB  22356.77409254  .00000028  00000-0  20811-4 0  9997","PERIAPSIS":"546.114","CENTER_NAME":"EARTH","RCS_SIZE":"LARGE","RA_OF_ASC_NODE":"137.0461","EPHEMERIS_TYPE":"0","SEMIMAJOR_AXIS":"6925.341","FILE":"3719655","NORAD_CAT_ID":"47909","MEAN_MOTION_DOT":"0.00000028","LAUNCH_DATE":"2021-03-14","REV_AT_EPOCH":"9956","APOAPSIS":"548.298","ARG_OF_PERICENTER":"62.2468","ECCENTRICITY":"0.00015770","COUNTRY_CODE":"US","PERIOD":"95.592","TLE_LINE2":"2 47909  53.0541 137.0461 0001577  62.2468 297.8680 15.06402586 99565","OBJECT_TYPE":"PAYLOAD","SITE":"AFETR","ELEMENT_SET_NO":"999","REF_FRAME":"TEME","OBJECT_ID":"2021-021BB","BSTAR":"0.00002081100000","EPOCH":"2022-12-22T18:34:41.595456","MEAN_ANOMALY":"297.8680","CLASSIFICATION_TYPE":"U","OBJECT_NAME":"STARLINK-2369","TIME_SYSTEM":"UTC"},{"APOAPSIS":"548.205","ARG_OF_PERICENTER":"59.2304","ECCENTRICITY":"0.00014090","COUNTRY_CODE":"US","SEMIMAJOR_AXIS":"6925.364","FILE":"3719655","MEAN_MOTION_DOT":"-0.00000138","NORAD_CAT_ID":"47910","LAUNCH_DATE":"2021-03-14","REV_AT_EPOCH":"9940","PERIAPSIS":"546.254","CENTER_NAME":"EARTH","RCS_SIZE":"LARGE","RA_OF_ASC_NODE":"137.4817","EPHEMERIS_TYPE":"0","MEAN_MOTION_DDOT":"0.0000000000000","DECAY_DATE":null,"GP_ID":"221235275","MEAN_ELEMENT_THEORY":"SGP4","MEAN_MOTION":"15.06394801","INCLINATION":"53.0540","TLE_LINE1":"1 47910U 21021BC  22356.67730939 -.00000138  00000-0  95992-5 0  9991","EPOCH":"2022-12-22T16:15:19.531296","MEAN_ANOMALY":"300.8823","CLASSIFICATION_TYPE":"U","OBJECT_NAME":"STARLINK-2370","TIME_SYSTEM":"UTC","REF_FRAME":"TEME","ELEMENT_SET_NO":"999","OBJECT_ID":"2021-021BC","BSTAR":"0.00000959920000","OBJECT_TYPE":"PAYLOAD","SITE":"AFETR","PERIOD":"95.592","TLE_LINE2":"2 47910  53.0540 137.4817 0001409  59.2304 300.8823 15.06394801 99401"},{"EPHEMERIS_TYPE":"0","PERIAPSIS":"546.341","CENTER_NAME":"EARTH","RCS_SIZE":"LARGE","RA_OF_ASC_NODE":"152.3598","GP_ID":"221234023","MEAN_MOTION":"15.06398079","DECAY_DATE":null,"MEAN_ELEMENT_THEORY":"SGP4","INCLINATION":"53.0555","TLE_LINE1":"1 47911U 21021BD  22356.75984693  .00000182  00000-0  31097-4 0  9992","MEAN_MOTION_DDOT":"0.0000000000000","ECCENTRICITY":"0.00012690","COUNTRY_CODE":"US","APOAPSIS":"548.098","ARG_OF_PERICENTER":"86.2743","SEMIMAJOR_AXIS":"6925.354","FILE":"3719655","NORAD_CAT_ID":"47911","MEAN_MOTION_DOT":"0.00000182","LAUNCH_DATE":"2021-03-14","REV_AT_EPOCH":"9903","SITE":"AFETR","OBJECT_TYPE":"PAYLOAD","PERIOD":"95.592","TLE_LINE2":"2 47911  53.0555 152.3598 0001269  86.2743 273.8391 15.06398079 99030","MEAN_ANOMALY":"273.8391","CLASSIFICATION_TYPE":"U","TIME_SYSTEM":"UTC","OBJECT_NAME":"STARLINK-2371","EPOCH":"2022-12-22T18:14:10.774752","BSTAR":"0.00003109700000","ELEMENT_SET_NO":"999","REF_FRAME":"TEME","OBJECT_ID":"2021-021BD"}];
